start=new Date('2022-06-10T00:00:00.000Z').valueOf();
sats=[{"MEAN_ELEMENT_THEORY":"SGP4","FILE":"3489040","TLE_LINE1":"1 47635U 21012R   22160.82542388 -.00001063  00000-0 -52493-4 0  9991","CLASSIFICATION_TYPE":"U","MEAN_MOTION_DDOT":"0.0000000000000","MEAN_MOTION_DOT":"-0.00001063","OBJECT_NAME":"STARLINK-2012","CENTER_NAME":"EARTH","MEAN_ANOMALY":"278.5090","APOAPSIS":"548.223","SEMIMAJOR_AXIS":"6925.380","TIME_SYSTEM":"UTC","EPOCH":"2022-06-09T19:48:36.623232","ECCENTRICITY":"0.00014120","SITE":"AFETR","ELEMENT_SET_NO":"999","OBJECT_TYPE":"PAYLOAD","PERIOD":"95.593","INCLINATION":"53.0646","REV_AT_EPOCH":"7499","NORAD_CAT_ID":"47635","REF_FRAME":"TEME","TLE_LINE2":"2 47635  53.0646   1.6485 0001412  81.6059 278.5090 15.06389859 74996","RA_OF_ASC_NODE":"1.6485","PERIAPSIS":"546.267","DECAY_DATE":null,"RCS_SIZE":"LARGE","COUNTRY_CODE":"US","GP_ID":"205781669","MEAN_MOTION":"15.06389859","LAUNCH_DATE":"2021-02-16","ARG_OF_PERICENTER":"81.6059","OBJECT_ID":"2021-012R","BSTAR":"-0.00005249300000","EPHEMERIS_TYPE":"0"},{"INCLINATION":"53.0559","REV_AT_EPOCH":"7384","TLE_LINE2":"2 47636  53.0559  79.5461 0001580  78.4064 281.7102 15.06393657 73848","NORAD_CAT_ID":"47636","REF_FRAME":"TEME","ELEMENT_SET_NO":"999","PERIOD":"95.593","OBJECT_TYPE":"PAYLOAD","COUNTRY_CODE":"US","GP_ID":"205736492","MEAN_MOTION":"15.06393657","RCS_SIZE":"LARGE","RA_OF_ASC_NODE":"79.5461","PERIAPSIS":"546.139","DECAY_DATE":null,"EPHEMERIS_TYPE":"0","BSTAR":"-0.00004502800000","OBJECT_ID":"2021-012S","ARG_OF_PERICENTER":"78.4064","LAUNCH_DATE":"2021-02-16","TLE_LINE1":"1 47636U 21012S   22160.19005538 -.00000952  00000-0 -45028-4 0  9995","CLASSIFICATION_TYPE":"U","FILE":"3488214","MEAN_ELEMENT_THEORY":"SGP4","MEAN_MOTION_DOT":"-0.00000952","MEAN_MOTION_DDOT":"0.0000000000000","SEMIMAJOR_AXIS":"6925.368","CENTER_NAME":"EARTH","OBJECT_NAME":"STARLINK-2013","APOAPSIS":"548.327","MEAN_ANOMALY":"281.7102","EPOCH":"2022-06-09T04:33:40.784832","SITE":"AFETR","ECCENTRICITY":"0.00015800","TIME_SYSTEM":"UTC"},{"LAUNCH_DATE":"2021-02-16","BSTAR":"-0.00007909300000","OBJECT_ID":"2021-012T","EPHEMERIS_TYPE":"0","ARG_OF_PERICENTER":"62.7233","PERIOD":"95.593","OBJECT_TYPE":"PAYLOAD","ELEMENT_SET_NO":"999","TLE_LINE2":"2 47637  53.0568  77.0033 0002505  62.7233 297.4011 15.06392722 73945","REF_FRAME":"TEME","NORAD_CAT_ID":"47637","INCLINATION":"53.0568","REV_AT_EPOCH":"7394","DECAY_DATE":null,"PERIAPSIS":"545.501","RA_OF_ASC_NODE":"77.0033","MEAN_MOTION":"15.06392722","GP_ID":"205780667","COUNTRY_CODE":"US","RCS_SIZE":"LARGE","APOAPSIS":"548.971","MEAN_ANOMALY":"297.4011","CENTER_NAME":"EARTH","OBJECT_NAME":"STARLINK-2014","SEMIMAJOR_AXIS":"6925.371","TIME_SYSTEM":"UTC","ECCENTRICITY":"0.00025050","SITE":"AFETR","EPOCH":"2022-06-09T18:11:04.607808","MEAN_ELEMENT_THEORY":"SGP4","FILE":"3489040","CLASSIFICATION_TYPE":"U","TLE_LINE1":"1 47637U 21012T   22160.75769222 -.00001460  00000-0 -79093-4 0  9999","MEAN_MOTION_DDOT":"0.0000000000000","MEAN_MOTION_DOT":"-0.00001460"},{"CENTER_NAME":"EARTH","OBJECT_NAME":"STARLINK-2015","APOAPSIS":"548.228","MEAN_ANOMALY":"278.4268","SEMIMAJOR_AXIS":"6925.379","TIME_SYSTEM":"UTC","EPOCH":"2022-06-09T19:43:17.104800","SITE":"AFETR","ECCENTRICITY":"0.00014200","FILE":"3489040","MEAN_ELEMENT_THEORY":"SGP4","TLE_LINE1":"1 47638U 21012U   22160.82172575 -.00002642  00000-0 -15861-3 0  9992","CLASSIFICATION_TYPE":"U","MEAN_MOTION_DDOT":"0.0000000000000","MEAN_MOTION_DOT":"-0.00002642","LAUNCH_DATE":"2021-02-16","OBJECT_ID":"2021-012U","BSTAR":"-0.00015861000000","EPHEMERIS_TYPE":"0","ARG_OF_PERICENTER":"81.6882","ELEMENT_SET_NO":"999","PERIOD":"95.593","OBJECT_TYPE":"PAYLOAD","REV_AT_EPOCH":"7497","INCLINATION":"53.0532","TLE_LINE2":"2 47638  53.0532   1.7058 0001420  81.6882 278.4268 15.06389983 74975","REF_FRAME":"TEME","NORAD_CAT_ID":"47638","RA_OF_ASC_NODE":"1.7058","DECAY_DATE":null,"PERIAPSIS":"546.261","COUNTRY_CODE":"US","GP_ID":"205781419","MEAN_MOTION":"15.06389983","RCS_SIZE":"LARGE"},{"MEAN_ELEMENT_THEORY":"SGP4","FILE":"3488214","TLE_LINE1":"1 47639U 21012V   22160.47018230 -.00000804  00000-0 -35081-4 0  9996","CLASSIFICATION_TYPE":"U","MEAN_MOTION_DDOT":"0.0000000000000","MEAN_MOTION_DOT":"-0.00000804","CENTER_NAME":"EARTH","OBJECT_NAME":"STARLINK-2016","APOAPSIS":"548.340","MEAN_ANOMALY":"296.4778","SEMIMAJOR_AXIS":"6925.373","TIME_SYSTEM":"UTC","EPOCH":"2022-06-09T11:17:03.750720","ECCENTRICITY":"0.00015900","SITE":"AFETR","ELEMENT_SET_NO":"999","PERIOD":"95.593","OBJECT_TYPE":"PAYLOAD","INCLINATION":"53.0566","REV_AT_EPOCH":"7387","TLE_LINE2":"2 47639  53.0566  78.2905 0001590  63.6374 296.4778 15.06391887 73877","REF_FRAME":"TEME","NORAD_CAT_ID":"47639","RA_OF_ASC_NODE":"78.2905","DECAY_DATE":null,"PERIAPSIS":"546.137","GP_ID":"205736249","MEAN_MOTION":"15.06391887","COUNTRY_CODE":"US","RCS_SIZE":"LARGE","LAUNCH_DATE":"2021-02-16","BSTAR":"-0.00003508100000","EPHEMERIS_TYPE":"0","OBJECT_ID":"2021-012V","ARG_OF_PERICENTER":"63.6374"},{"ARG_OF_PERICENTER":"59.9535","OBJECT_ID":"2021-012W","BSTAR":"-0.00005027300000","EPHEMERIS_TYPE":"0","LAUNCH_DATE":"2021-02-16","NORAD_CAT_ID":"47640","REF_FRAME":"TEME","TLE_LINE2":"2 47640  53.0555  99.4957 0002304  59.9535 300.1683 15.06392308 73574","INCLINATION":"53.0555","REV_AT_EPOCH":"7357","OBJECT_TYPE":"PAYLOAD","PERIOD":"95.593","ELEMENT_SET_NO":"999","RCS_SIZE":"LARGE","GP_ID":"205736991","COUNTRY_CODE":"US","MEAN_MOTION":"15.06392308","PERIAPSIS":"545.642","DECAY_DATE":null,"RA_OF_ASC_NODE":"99.4957","SEMIMAJOR_AXIS":"6925.372","MEAN_ANOMALY":"300.1683","APOAPSIS":"548.833","OBJECT_NAME":"STARLINK-2018","CENTER_NAME":"EARTH","SITE":"AFETR","ECCENTRICITY":"0.00023040","EPOCH":"2022-06-09T04:46:56.972064","TIME_SYSTEM":"UTC","CLASSIFICATION_TYPE":"U","TLE_LINE1":"1 47640U 21012W   22160.19927051 -.00001030  00000-0 -50273-4 0  9999","MEAN_ELEMENT_THEORY":"SGP4","FILE":"3488214","MEAN_MOTION_DOT":"-0.00001030","MEAN_MOTION_DDOT":"0.0000000000000"},{"TLE_LINE1":"1 47641U 21012X   22160.67430670 -.00000471  00000-0 -12743-4 0  9997","CLASSIFICATION_TYPE":"U","FILE":"3489040","MEAN_ELEMENT_THEORY":"SGP4","MEAN_MOTION_DOT":"-0.00000471","MEAN_MOTION_DDOT":"0.0000000000000","SEMIMAJOR_AXIS":"6925.402","OBJECT_NAME":"STARLINK-2019","CENTER_NAME":"EARTH","APOAPSIS":"548.339","MEAN_ANOMALY":"282.5790","EPOCH":"2022-06-09T16:11:00.098880","SITE":"AFETR","ECCENTRICITY":"0.00015480","TIME_SYSTEM":"UTC","REV_AT_EPOCH":"7495","INCLINATION":"53.0564","REF_FRAME":"TEME","NORAD_CAT_ID":"47641","TLE_LINE2":"2 47641  53.0564   2.3796 0001548  77.5372 282.5790 15.06382475 74952","ELEMENT_SET_NO":"999","OBJECT_TYPE":"PAYLOAD","PERIOD":"95.593","RCS_SIZE":"LARGE","GP_ID":"205780167","COUNTRY_CODE":"US","MEAN_MOTION":"15.06382475","RA_OF_ASC_NODE":"2.3796","DECAY_DATE":null,"PERIAPSIS":"546.195","ARG_OF_PERICENTER":"77.5372","EPHEMERIS_TYPE":"0","BSTAR":"-0.00001274300000","OBJECT_ID":"2021-012X","LAUNCH_DATE":"2021-02-16"},{"LAUNCH_DATE":"2021-02-16","ARG_OF_PERICENTER":"62.1795","OBJECT_ID":"2021-012Y","BSTAR":"-0.00018821000000","EPHEMERIS_TYPE":"0","ELEMENT_SET_NO":"999","OBJECT_TYPE":"PAYLOAD","PERIOD":"95.593","REV_AT_EPOCH":"7317","INCLINATION":"53.0550","NORAD_CAT_ID":"47642","REF_FRAME":"TEME","TLE_LINE2":"2 47642  53.0550  92.9742 0001898  62.1795 297.9386 15.06384188 73178","RA_OF_ASC_NODE":"92.9742","PERIAPSIS":"545.948","DECAY_DATE":null,"RCS_SIZE":"LARGE","MEAN_MOTION":"15.06384188","GP_ID":"205742845","COUNTRY_CODE":"US","OBJECT_NAME":"STARLINK-2020","CENTER_NAME":"EARTH","MEAN_ANOMALY":"297.9386","APOAPSIS":"548.576","SEMIMAJOR_AXIS":"6925.397","TIME_SYSTEM":"UTC","EPOCH":"2022-06-09T12:53:16.983168","SITE":"AFETR","ECCENTRICITY":"0.00018980","MEAN_ELEMENT_THEORY":"SGP4","FILE":"3488356","TLE_LINE1":"1 47642U 21012Y   22160.53700212 -.00003083  00000-0 -18821-3 0  9999","CLASSIFICATION_TYPE":"U","MEAN_MOTION_DDOT":"0.0000000000000","MEAN_MOTION_DOT":"-0.00003083"},{"MEAN_ANOMALY":"303.3586","APOAPSIS":"548.689","OBJECT_NAME":"STARLINK-2022","CENTER_NAME":"EARTH","SEMIMAJOR_AXIS":"6925.365","TIME_SYSTEM":"UTC","ECCENTRICITY":"0.00021070","SITE":"AFETR","EPOCH":"2022-06-09T11:38:17.834496","FILE":"3488214","MEAN_ELEMENT_THEORY":"SGP4","CLASSIFICATION_TYPE":"U","TLE_LINE1":"1 47643U 21012Z   22160.48492864 -.00000351  00000-0 -46682-5 0  9998","MEAN_MOTION_DDOT":"0.0000000000000","MEAN_MOTION_DOT":"-0.00000351","LAUNCH_DATE":"2021-02-16","ARG_OF_PERICENTER":"56.7605","BSTAR":"-0.00000466820000","EPHEMERIS_TYPE":"0","OBJECT_ID":"2021-012Z","OBJECT_TYPE":"PAYLOAD","PERIOD":"95.592","ELEMENT_SET_NO":"999","REF_FRAME":"TEME","NORAD_CAT_ID":"47643","TLE_LINE2":"2 47643  53.0569  78.2268 0002107  56.7605 303.3586 15.06394638 73896","REV_AT_EPOCH":"7389","INCLINATION":"53.0569","DECAY_DATE":null,"PERIAPSIS":"545.771","RA_OF_ASC_NODE":"78.2268","RCS_SIZE":"LARGE","GP_ID":"205736749","MEAN_MOTION":"15.06394638","COUNTRY_CODE":"US"},{"FILE":"3489040","MEAN_ELEMENT_THEORY":"SGP4","CLASSIFICATION_TYPE":"U","TLE_LINE1":"1 47644U 21012AA  22160.82957074  .00000622  00000-0  60657-4 0  9992","MEAN_MOTION_DDOT":"0.0000000000000","MEAN_MOTION_DOT":"0.00000622","APOAPSIS":"548.381","MEAN_ANOMALY":"303.0506","CENTER_NAME":"EARTH","OBJECT_NAME":"STARLINK-2026","SEMIMAJOR_AXIS":"6925.391","TIME_SYSTEM":"UTC","SITE":"AFETR","ECCENTRICITY":"0.00016250","EPOCH":"2022-06-09T19:54:34.911936","PERIOD":"95.593","OBJECT_TYPE":"PAYLOAD","ELEMENT_SET_NO":"999","TLE_LINE2":"2 47644  53.0551  96.6739 0001625  57.0639 303.0506 15.06386138 73671","REF_FRAME":"TEME","NORAD_CAT_ID":"47644","INCLINATION":"53.0551","REV_AT_EPOCH":"7367","PERIAPSIS":"546.131","DECAY_DATE":null,"RA_OF_ASC_NODE":"96.6739","GP_ID":"205780418","MEAN_MOTION":"15.06386138","COUNTRY_CODE":"US","RCS_SIZE":"LARGE","LAUNCH_DATE":"2021-02-16","BSTAR":"0.00006065700000","OBJECT_ID":"2021-012AA","EPHEMERIS_TYPE":"0","ARG_OF_PERICENTER":"57.0639"}];
